OBJECT_NAME,OBJECT_ID,EPOCH,MEAN_MOTION,ECCENTRICITY,INCLINATION,RA_OF_ASC_NODE,ARG_OF_PERICENTER,MEAN_ANOMALY,EPHEMERIS_TYPE,CLASSIFICATION_TYPE,NORAD_CAT_ID,ELEMENT_SET_NO,REV_AT_EPOCH,BSTAR,MEAN_MOTION_DOT,MEAN_MOTION_DDOT
ONEWEB-0606,2022-166AE,2026-06-08T18:10:49.982016,13.21825856,.0001938,87.9256,245.6766,104.4774,255.6575,0,U,54670,999,17045,-.33851E-3,-.127E-5,0
ONEWEB-0607,2022-166AF,2026-06-08T19:11:21.259968,13.21823738,.0002018,87.9260,245.6386,95.0218,265.1146,0,U,54671,999,17043,-.13623E-3,-.43E-6,0
ONEWEB-0608,2022-166AG,2026-06-08T17:32:03.909120,13.21827093,.000242,87.9268,245.6489,89.9953,270.1458,0,U,54672,999,17043,.35645E-4,.28E-6,0
ONEWEB-0610,2022-166AH,2026-06-08T18:51:58.652064,13.21825272,.0002305,87.9254,245.6527,84.2251,275.9145,0,U,54673,999,17034,-.98885E-3,-.395E-5,0
ONEWEB-0611,2022-166AJ,2026-06-08T18:42:17.701920,13.21827452,.0001994,87.9254,245.6499,103.0790,257.0566,0,U,54674,999,17033,-.15754E-3,-.52E-6,0
ONEWEB-0612,2022-166AK,2026-06-08T19:01:41.092608,13.21824625,.0002124,87.9265,245.6419,95.8593,264.2783,0,U,54675,999,17032,-.27105E-3,-.99E-6,0
ONEWEB-0615,2022-166AL,2026-06-08T18:32:38.015808,13.21826270,.0001788,87.9258,245.6612,104.1596,255.9737,0,U,54676,999,17033,-.14134E-3,-.45E-6,0
ONEWEB-0655,2022-166AM,2026-06-08T17:58:43.308768,13.21825887,.000187,87.9256,245.6675,92.9682,267.1666,0,U,54677,999,17032,-.23104E-3,-.82E-6,0
ONEWEB-0659,2022-166AN,2026-06-08T18:22:56.188704,13.21820914,.0002003,87.9255,245.6641,101.3010,258.8349,0,U,54678,999,17041,.11366E-2,.482E-5,0
ONEWEB-0685,2022-166AP,2026-06-08T18:23:15.340128,13.21847363,.0002123,87.9253,245.6563,89.8187,270.3190,0,U,54679,999,17030,-.15223E-3,-.5E-6,0
ONEWEB-0712,2022-166AQ,2026-06-08T05:51:53.682048,13.16593728,.0001711,87.9103,230.5502,88.4612,271.6715,0,U,54680,999,17088,.76837E-5,.16E-6,0
ONEWEB-0714,2022-166AR,2026-06-08T18:30:10.240704,13.21826062,.0001709,87.9254,245.6525,96.4210,263.7118,0,U,54681,999,17042,-.12185E-2,-.49E-5,0
ONEWEB-0532,2023-004A,2026-06-08T19:58:25.141152,13.17648333,.0002198,87.9140,7.5276,90.1185,270.0199,0,U,55140,999,16648,.92143E-4,.49E-6,0
ONEWEB-0533,2023-004B,2026-06-08T18:23:34.884672,13.12442103,.0001883,87.8947,352.3456,82.9977,277.1365,0,U,55141,999,16695,.76735E-3,.289E-5,0
ONEWEB-0541,2023-004C,2026-06-08T20:46:57.974592,13.11416469,.0001803,87.8902,22.7136,90.0544,270.0790,0,U,55142,999,16485,-.10527E-2,-.36E-5,0
ONEWEB-0543,2023-004D,2026-06-08T17:47:52.048032,13.18685139,.0001671,87.9159,337.1512,87.4944,272.6380,0,U,55143,999,16858,.1947E-3,.9E-6,0
ONEWEB-0544,2023-004E,2026-06-08T12:10:22.669248,13.18684484,.0001585,87.9161,337.1969,95.4475,264.6838,0,U,55144,999,16855,-.30981E-3,-.109E-5,0
ONEWEB-0560,2023-004F,2026-06-08T12:00:40.206240,13.18686551,.0001551,87.9160,337.1879,93.7259,266.4050,0,U,55145,999,16856,.11915E-3,.6E-6,0
ONEWEB-0565,2023-004G,2026-06-08T11:50:56.866272,13.18685232,.0001889,87.9149,337.2179,104.2761,255.8581,0,U,55146,999,16855,.15972E-3,.76E-6,0
ONEWEB-0567,2023-004H,2026-06-08T18:58:17.586912,13.18685307,.0001739,87.9159,337.1424,102.4969,257.6358,0,U,55147,999,16859,-.1779E-4,.6E-7,0
ONEWEB-0569,2023-004J,2026-06-08T11:25:45.954048,13.13469911,.0001213,87.8958,321.9540,121.7528,238.3719,0,U,55148,999,16903,-.62067E-3,-.214E-5,0
ONEWEB-0570,2023-004K,2026-06-08T18:46:07.944960,13.18684681,.0002178,87.9157,337.1420,96.7811,263.3569,0,U,55149,999,16858,-.46721E-4,-.6E-7,0
ONEWEB-0571,2023-004L,2026-06-08T18:36:26.536896,13.18679856,.0001845,87.9156,337.1426,131.3072,228.8219,0,U,55150,999,16859,.31028E-2,.1236E-4,0
ONEWEB-0572,2023-004M,2026-06-08T11:35:24.781344,13.17647293,.0001832,87.9138,7.5975,93.3019,266.8322,0,U,55151,999,16633,.10672E-3,.54E-6,0
ONEWEB-0573,2023-004N,2026-06-08T18:26:43.134720,13.18685853,.0001897,87.9158,337.1455,118.7864,241.3459,0,U,55152,999,16858,.2441E-3,.109E-5,0
ONEWEB-0588,2023-004P,2026-06-08T18:16:59.971872,13.18684639,.0002253,87.9156,337.1472,99.6105,260.5282,0,U,55153,999,16858,.17766E-4,.2E-6,0
ONEWEB-0598,2023-004Q,2026-06-08T20:15:14.346720,13.11416549,.0001376,87.8893,22.7296,106.4788,253.6491,0,U,55154,999,16480,.14427E-2,.524E-5,0
ONEWEB-0599,2023-004R,2026-06-08T19:46:16.192128,13.17648488,.0001631,87.9140,7.5285,83.9498,276.1820,0,U,55155,999,16638,-.15053E-3,-.46E-6,0
ONEWEB-0614,2023-004S,2026-06-08T09:08:42.268128,13.11417497,.0002016,87.8896,22.8307,82.7610,277.3747,0,U,55156,999,16468,.17371E-2,.628E-5,0
ONEWEB-0616,2023-004T,2026-06-08T20:47:01.624128,13.17648027,.0001208,87.9140,7.5233,59.7640,300.3611,0,U,55157,999,16660,.33243E-4,.26E-6,0
ONEWEB-0617,2023-004U,2026-06-08T12:31:21.499104,13.11418014,.000223,87.8898,22.7933,87.7087,272.4296,0,U,55158,999,16472,.90712E-3,.334E-5,0
