ONEWEB-0606             
1 54670U 22166AE  26159.75752294 -.00000127  00000+0 -33851-3 0  9997
2 54670  87.9256 245.6766 0001938 104.4774 255.6575 13.21825856170458
ONEWEB-0607             
1 54671U 22166AF  26159.79955162 -.00000043  00000+0 -13623-3 0  9993
2 54671  87.9260 245.6386 0002018  95.0218 265.1146 13.21823738170435
ONEWEB-0608             
1 54672U 22166AG  26159.73060080  .00000028  00000+0  35645-4 0  9994
2 54672  87.9268 245.6489 0002420  89.9953 270.1458 13.21827093170433
ONEWEB-0610             
1 54673U 22166AH  26159.78609551 -.00000395  00000+0 -98885-3 0  9995
2 54673  87.9254 245.6527 0002305  84.2251 275.9145 13.21825272170346
ONEWEB-0611             
1 54674U 22166AJ  26159.77937155 -.00000052  00000+0 -15754-3 0  9993
2 54674  87.9254 245.6499 0001994 103.0790 257.0566 13.21827452170335
ONEWEB-0612             
1 54675U 22166AK  26159.79283672 -.00000099  00000+0 -27105-3 0  9998
2 54675  87.9265 245.6419 0002124  95.8593 264.2783 13.21824625170324
ONEWEB-0615             
1 54676U 22166AL  26159.77266222 -.00000045  00000+0 -14134-3 0  9998
2 54676  87.9258 245.6612 0001788 104.1596 255.9737 13.21826270170339
ONEWEB-0655             
1 54677U 22166AM  26159.74911237 -.00000082  00000+0 -23104-3 0  9997
2 54677  87.9256 245.6675 0001870  92.9682 267.1666 13.21825887170327
ONEWEB-0659             
1 54678U 22166AN  26159.76592811  .00000482  00000+0  11366-2 0  9991
2 54678  87.9255 245.6641 0002003 101.3010 258.8349 13.21820914170410
ONEWEB-0685             
1 54679U 22166AP  26159.76614977 -.00000050  00000+0 -15223-3 0  9990
2 54679  87.9253 245.6563 0002123  89.8187 270.3190 13.21847363170308
ONEWEB-0712             
1 54680U 22166AQ  26159.24437132  .00000016  00000+0  76837-5 0  9991
2 54680  87.9103 230.5502 0001711  88.4612 271.6715 13.16593728170887
ONEWEB-0714             
1 54681U 22166AR  26159.77095186 -.00000490  00000+0 -12185-2 0  9990
2 54681  87.9254 245.6525 0001709  96.4210 263.7118 13.21826062170422
ONEWEB-0532             
1 55140U 23004A   26159.83223543  .00000049  00000+0  92143-4 0  9992
2 55140  87.9140   7.5276 0002198  90.1185 270.0199 13.17648333166489
ONEWEB-0533             
1 55141U 23004B   26159.76637598  .00000289  00000+0  76735-3 0  9998
2 55141  87.8947 352.3456 0001883  82.9977 277.1365 13.12442103166950
ONEWEB-0541             
1 55142U 23004C   26159.86594878 -.00000360  00000+0 -10527-2 0  9991
2 55142  87.8902  22.7136 0001803  90.0544 270.0790 13.11416469164853
ONEWEB-0543             
1 55143U 23004D   26159.74157463  .00000090  00000+0  19470-3 0  9999
2 55143  87.9159 337.1512 0001671  87.4944 272.6380 13.18685139168583
ONEWEB-0544             
1 55144U 23004E   26159.50720682 -.00000109  00000+0 -30981-3 0  9996
2 55144  87.9161 337.1969 0001585  95.4475 264.6838 13.18684484168553
ONEWEB-0560             
1 55145U 23004F   26159.50046535  .00000060  00000+0  11915-3 0  9995
2 55145  87.9160 337.1879 0001551  93.7259 266.4050 13.18686551168561
ONEWEB-0565             
1 55146U 23004G   26159.49371373  .00000076  00000+0  15972-3 0  9999
2 55146  87.9149 337.2179 0001889 104.2761 255.8581 13.18685232168558
ONEWEB-0567             
1 55147U 23004H   26159.79048133  .00000006  00000+0 -17790-4 0  9993
2 55147  87.9159 337.1424 0001739 102.4969 257.6358 13.18685307168595
ONEWEB-0569             
1 55148U 23004J   26159.47622633 -.00000214  00000+0 -62067-3 0  9990
2 55148  87.8958 321.9540 0001212 121.7528 238.3719 13.13469911169036
ONEWEB-0570             
1 55149U 23004K   26159.78203640 -.00000006  00000+0 -46721-4 0  9997
2 55149  87.9157 337.1420 0002178  96.7811 263.3569 13.18684681168581
ONEWEB-0571             
1 55150U 23004L   26159.77530714  .00001236  00000+0  31028-2 0  9999
2 55150  87.9156 337.1426 0001845 131.3072 228.8219 13.18679856168590
ONEWEB-0572             
1 55151U 23004M   26159.48292571  .00000054  00000+0  10672-3 0  9994
2 55151  87.9138   7.5975 0001831  93.3019 266.8322 13.17647293166337
ONEWEB-0573             
1 55152U 23004N   26159.76855480  .00000109  00000+0  24410-3 0  9996
2 55152  87.9158 337.1455 0001897 118.7864 241.3459 13.18685853168580
ONEWEB-0588             
1 55153U 23004P   26159.76180523  .00000020  00000+0  17766-4 0  9995
2 55153  87.9156 337.1472 0002253  99.6105 260.5282 13.18684639168588
ONEWEB-0598             
1 55154U 23004Q   26159.84391605  .00000524  00000+0  14427-2 0  9998
2 55154  87.8893  22.7296 0001376 106.4788 253.6491 13.11416549164808
ONEWEB-0599             
1 55155U 23004R   26159.82379852 -.00000046  00000+0 -15053-3 0  9995
2 55155  87.9140   7.5285 0001631  83.9498 276.1820 13.17648488166381
ONEWEB-0614             
1 55156U 23004S   26159.38104478  .00000628  00000+0  17371-2 0  9995
2 55156  87.8896  22.8307 0002015  82.7610 277.3747 13.11417497164684
ONEWEB-0616             
1 55157U 23004T   26159.86599102  .00000026  00000+0  33243-4 0  9991
2 55157  87.9140   7.5233 0001208  59.7640 300.3611 13.17648027166608
ONEWEB-0617             
1 55158U 23004U   26159.52177661  .00000334  00000+0  90712-3 0  9992
2 55158  87.8898  22.7933 0002229  87.7087 272.4296 13.11418014164728
